ORBCOMM FM103           
1 40091U 14040F   25152.90633262  .00000825  00000+0  21376-3 0  9995
2 40091  47.0055  89.9667 0002016 232.8351 127.2351 14.58151149561872
ORBCOMM FM114           
1 41179U 15081A   25152.92835354  .00000693  00000+0  18539-3 0  9997
2 41179  47.0043 358.9205 0002564 276.3326  83.7267 14.58192138502248
ORBCOMM FM119           
1 41180U 15081B   25152.64157406  .00001324  00000+0  32119-3 0  9995
2 41180  47.0007 269.5819 0001412 303.3403  56.7347 14.58130034503456
ORBCOMM FM105           
1 41181U 15081C   25152.66655246  .00000674  00000+0  23511-3 0  9996
2 41181  47.0017 272.9033 0002471 250.1223 109.9391 14.45214021498503
ORBCOMM FM110           
1 41182U 15081D   25152.84143476  .00001029  00000+0  25841-3 0  9997
2 41182  47.0034 358.7592 0001207 112.4913 247.6100 14.58002066502106
ORBCOMM FM118           
1 41183U 15081E   25152.88712232  .00001060  00000+0  26296-3 0  9994
2 41183  47.0055 358.9272 0003556  79.8491 280.2796 14.58404684502211
ORBCOMM FM112           
1 41184U 15081F   25152.75480589  .00001041  00000+0  26017-3 0  9998
2 41184  46.9992 268.1986 0001942 269.6133  90.4529 14.58151627503417
ORBCOMM FM113           
1 41185U 15081G   25152.73157435  .00001813  00000+0  42578-3 0  9995
2 41185  47.0010 268.6303 0001743 280.6740  79.3950 14.58164544503398
